CCSDS_OEM_VERS = 1.0
CREATION_DATE  = 2017-05-11T11:08:40
ORIGINATOR     = GMAT USER

META_START
OBJECT_NAME          = MOPSSat_alt_35785_km_RAAN_0_163
OBJECT_ID            = SatId
CENTER_NAME          = Earth
REF_FRAME            = EME2000
TIME_SYSTEM          = UTC
START_TIME           = 2017-01-01T00:00:00.000
USEABLE_START_TIME   = 2017-01-01T00:00:00.000
USEABLE_STOP_TIME    = 2017-01-02T00:00:00.000
STOP_TIME            = 2017-01-02T00:00:00.000
INTERPOLATION        = Lagrange
INTERPOLATION_DEGREE = 7 
META_STOP


                                                                                   

2017-01-01T06:43:20.000  -5.134308057197654e+04   2.649574658159268e+04   5.189338953615763e+00  -1.763282393289113e+00  -1.110011575787045e+00  -1.316218617461024e-04
2017-01-01T06:43:30.000  -5.136070809039322e+04   2.648464372932397e+04   5.188022415071798e+00  -1.762221395689821e+00  -1.110558833172744e+00  -1.316858380949376e-04
2017-01-01T06:43:40.000  -5.137832500009426e+04   2.647353540702443e+04   5.186705237175063e+00  -1.761160616381329e+00  -1.111105560876833e+00  -1.317497298079284e-04
2017-01-01T06:43:50.000  -5.139593130327047e+04   2.646242161998211e+04   5.185387420770685e+00  -1.760100055205260e+00  -1.111651759438450e+00  -1.318135369872087e-04
2017-01-01T06:44:00.000  -5.141352700210218e+04   2.645130237348566e+04   5.184068966703476e+00  -1.759039712003807e+00  -1.112197429395620e+00  -1.318772597347317e-04
2017-01-01T06:44:10.000  -5.143111209875862e+04   2.644017767282397e+04   5.182749875817906e+00  -1.757979586619756e+00  -1.112742571285230e+00  -1.319408981522663e-04
2017-01-01T06:44:20.000  -5.144868659523023e+04   2.642904752339393e+04   5.181430148970862e+00  -1.756919678906642e+00  -1.113287185637853e+00  -1.320044523407946e-04
2017-01-01T06:44:30.000  -5.146625049355517e+04   2.641791193055569e+04   5.180109787014500e+00  -1.755859988715050e+00  -1.113831272984747e+00  -1.320679224013278e-04
2017-01-01T06:44:40.000  -5.148380379572984e+04   2.640677089968954e+04   5.178788790802973e+00  -1.754800515898017e+00  -1.114374833855094e+00  -1.321313084345839e-04
2017-01-01T06:44:50.000  -5.150134650410512e+04   2.639562443594460e+04   5.177467161162658e+00  -1.753741260287123e+00  -1.114917868788269e+00  -1.321946105424192e-04
2017-01-01T06:45:00.000  -5.151887862098998e+04   2.638447254449012e+04   5.176144898921931e+00  -1.752682221716400e+00  -1.115460378321564e+00  -1.322578288263967e-04
2017-01-01T06:45:10.000  -5.153640014874149e+04   2.637331523045876e+04   5.174822004904458e+00  -1.751623400016929e+00  -1.116002362992980e+00  -1.323209633881116e-04
2017-01-01T06:45:20.000  -5.155391108953620e+04   2.636215249909040e+04   5.173498479946231e+00  -1.750564795030571e+00  -1.116543823334133e+00  -1.323840143283620e-04
2017-01-01T06:45:30.000  -5.157141144554023e+04   2.635098435562557e+04   5.172174324882953e+00  -1.749506406599771e+00  -1.117084759875542e+00  -1.324469817477678e-04
2017-01-01T06:45:40.000  -5.158890121890869e+04   2.633981080530520e+04   5.170849540549988e+00  -1.748448234567558e+00  -1.117625173146603e+00  -1.325098657467673e-04
2017-01-01T06:45:50.000  -5.160638041161887e+04   2.632863185347878e+04   5.169524127795205e+00  -1.747390278787695e+00  -1.118165063670459e+00  -1.325726664250232e-04
2017-01-01T06:46:00.000  -5.162384902569547e+04   2.631744750545896e+04   5.168198087461713e+00  -1.746332539111004e+00  -1.118704431970942e+00  -1.326353838822270e-04
2017-01-01T06:46:10.000  -5.164130706312001e+04   2.630625776657984e+04   5.166871420394806e+00  -1.745275015390858e+00  -1.119243278569778e+00  -1.326980182177755e-04
2017-01-01T06:46:20.000  -5.165875452623137e+04   2.629506264194024e+04   5.165544127411495e+00  -1.744217707458916e+00  -1.119781603998952e+00  -1.327605695322080e-04
2017-01-01T06:46:30.000  -5.167619141732419e+04   2.628386213666109e+04   5.164216209331045e+00  -1.743160615149454e+00  -1.120319408788309e+00  -1.328230379257652e-04
2017-01-01T06:46:40.000  -5.169361773875255e+04   2.627265625581899e+04   5.162887666967084e+00  -1.742103738293080e+00  -1.120856693468769e+00  -1.328854234987622e-04
2017-01-01T06:46:50.000  -5.171103349265063e+04   2.626144500462456e+04   5.161558501148768e+00  -1.741047076733637e+00  -1.121393458563678e+00  -1.329477263505825e-04
2017-01-01T06:47:00.000  -5.172843868116349e+04   2.625022838827543e+04   5.160228712703328e+00  -1.739990630314249e+00  -1.121929704595960e+00  -1.330099465805103e-04
2017-01-01T06:47:10.000  -5.174583330639543e+04   2.623900641198903e+04   5.158898302459976e+00  -1.738934398880442e+00  -1.122465432086514e+00  -1.330720842875446e-04
2017-01-01T06:47:20.000  -5.176321737042478e+04   2.622777908099399e+04   5.157567271248880e+00  -1.737878382279278e+00  -1.123000641554686e+00  -1.331341395704564e-04
2017-01-01T06:47:30.000  -5.178059087532049e+04   2.621654640051868e+04   5.156235619899802e+00  -1.736822580358320e+00  -1.123535333518771e+00  -1.331961125278450e-04
2017-01-01T06:47:40.000  -5.179795382314863e+04   2.620530837578726e+04   5.154903349241634e+00  -1.735766992965245e+00  -1.124069508496217e+00  -1.332580032581611e-04
2017-01-01T06:47:50.000  -5.181530621603459e+04   2.619406501197958e+04   5.153570460097643e+00  -1.734711619944070e+00  -1.124603167005543e+00  -1.333198118599305e-04
2017-01-01T06:48:00.000  -5.183264805612154e+04   2.618281631425781e+04   5.152236953288637e+00  -1.733656461137671e+00  -1.125136309565057e+00  -1.333815384316044e-04
2017-01-01T06:48:10.000  -5.184997934557027e+04   2.617156228776650e+04   5.150902829632954e+00  -1.732601516387784e+00  -1.125668936692854e+00  -1.334431830715599e-04
2017-01-01T06:48:20.000  -5.186730008660029e+04   2.616030293760555e+04   5.149568089943278e+00  -1.731546785532498e+00  -1.126201048908073e+00  -1.335047458782450e-04
2017-01-01T06:48:30.000  -5.188461028142801e+04   2.614903826887059e+04   5.148232735031417e+00  -1.730492268410020e+00  -1.126732646729004e+00  -1.335662269499599e-04
2017-01-01T06:48:40.000  -5.190190993226071e+04   2.613776828665710e+04   5.146896765708790e+00  -1.729437964859059e+00  -1.127263730672903e+00  -1.336276263848362e-04
2017-01-01T06:48:50.000  -5.191919904127852e+04   2.612649299607137e+04   5.145560182787731e+00  -1.728383874719881e+00  -1.127794301255437e+00  -1.336889442807698e-04
2017-01-01T06:49:00.000  -5.193647761062148e+04   2.611521240223983e+04   5.144222987082596e+00  -1.727329997835145e+00  -1.128324358990290e+00  -1.337501807353791e-04
2017-01-01T06:49:10.000  -5.195374564244007e+04   2.610392651027578e+04   5.142885179405816e+00  -1.726276334046802e+00  -1.128853904390721e+00  -1.338113358461827e-04
2017-01-01T06:49:20.000  -5.197100313866858e+04   2.609263532542858e+04   5.141546760585579e+00  -1.725222883209967e+00  -1.129382937962624e+00  -1.338724097098027e-04
2017-01-01T06:49:30.000  -5.198825010129994e+04   2.608133885290301e+04   5.140207731444432e+00  -1.724169645176105e+00  -1.129911460212946e+00  -1.339334024229329e-04
2017-01-01T06:49:40.000  -5.200548653228340e+04   2.607003709792632e+04   5.138868092807216e+00  -1.723116619799289e+00  -1.130439471646554e+00  -1.339943140819778e-04
2017-01-01T06:49:50.000  -5.202271243392108e+04   2.605873006548847e+04   5.137527845470271e+00  -1.722063806911976e+00  -1.130966972778382e+00  -1.340551447844541e-04
2017-01-01T06:50:00.000  -5.203992780847239e+04   2.604741776060119e+04   5.136186990232161e+00  -1.721011206349170e+00  -1.131493964121317e+00  -1.341158946275929e-04
2017-01-01T06:50:10.000  -5.205713265824382e+04   2.603610018823946e+04   5.134845527886730e+00  -1.719958817942943e+00  -1.132020446188948e+00  -1.341765637086580e-04
2017-01-01T06:50:20.000  -5.207432698536461e+04   2.602477735348729e+04   5.133503459240383e+00  -1.718906641536093e+00  -1.132546419488686e+00  -1.342371521241500e-04
2017-01-01T06:50:30.000  -5.209151079195375e+04   2.601344926142977e+04   5.132160785099284e+00  -1.717854676972002e+00  -1.133071884526895e+00  -1.342976599704009e-04
2017-01-01T06:50:40.000  -5.210868408011943e+04   2.600211591715262e+04   5.130817506269316e+00  -1.716802924094637e+00  -1.133596841808866e+00  -1.343580873435698e-04
2017-01-01T06:50:50.000  -5.212584685179517e+04   2.599077732585202e+04   5.129473623569087e+00  -1.715751382758642e+00  -1.134121291833841e+00  -1.344184343390720e-04
2017-01-01T06:51:00.000  -5.214299910896107e+04   2.597943349268707e+04   5.128129137812445e+00  -1.714700052815744e+00  -1.134645235101746e+00  -1.344787010523527e-04
2017-01-01T06:51:10.000  -5.216014085355640e+04   2.596808442283789e+04   5.126784049815372e+00  -1.713648934120110e+00  -1.135168672110531e+00  -1.345388875785812e-04
2017-01-01T06:51:20.000  -5.217727208786657e+04   2.595673012124942e+04   5.125438360365616e+00  -1.712598026504623e+00  -1.135691603367988e+00  -1.345989940140106e-04
2017-01-01T06:51:30.000  -5.219439281413618e+04   2.594537059288761e+04   5.124092070253051e+00  -1.711547329804612e+00  -1.136214029379933e+00  -1.346590204546180e-04
2017-01-01T06:51:40.000  -5.221150303465653e+04   2.593400584268150e+04   5.122745180262820e+00  -1.710496843852481e+00  -1.136735950652887e+00  -1.347189669964135e-04
2017-01-01T06:51:50.000  -5.222860275154281e+04   2.592263587566981e+04   5.121397691192700e+00  -1.709446568491342e+00  -1.137257367687250e+00  -1.347788337346528e-04
2017-01-01T06:52:00.000  -5.224569196689993e+04   2.591126069689230e+04   5.120049603840243e+00  -1.708396503564889e+00  -1.137778280982388e+00  -1.348386207644255e-04
2017-01-01T06:52:10.000  -5.226277068282198e+04   2.589988031138957e+04   5.118700919002729e+00  -1.707346648917404e+00  -1.138298691036614e+00  -1.348983281806509e-04
2017-01-01T06:52:20.000  -5.227983890122950e+04   2.588849472431317e+04   5.117351637490235e+00  -1.706297004403829e+00  -1.138818598342246e+00  -1.349579560775146e-04
